[{"OBJECT_NAME":"ION SCV-013","OBJECT_ID":"2023-174AW","EPOCH":"2026-03-09T22:59:29.755392","MEAN_MOTION":15.04632564,"ECCENTRICITY":0.00998876,"INCLINATION":97.6297,"RA_OF_ASC_NODE":125.3193,"ARG_OF_PERICENTER":172.5348,"MEAN_ANOMALY":187.7394,"EPHEMERIS_TYPE":0,"CLASSIFICATION_TYPE":"U","NORAD_CAT_ID":58300,"ELEMENT_SET_NO":999,"REV_AT_EPOCH":12661,"BSTAR":0.00023880169,"MEAN_MOTION_DOT":3.68e-5,"MEAN_MOTION_DDOT":0},{"OBJECT_NAME":"STARLINK-36454","OBJECT_ID":"2026-008AB","EPOCH":"2026-03-09T10:10:08.508576","MEAN_MOTION":15.27592972,"ECCENTRICITY":0.00052206,"INCLINATION":43.0057,"RA_OF_ASC_NODE":206.528,"ARG_OF_PERICENTER":293.9378,"MEAN_ANOMALY":66.0927,"EPHEMERIS_TYPE":0,"CLASSIFICATION_TYPE":"U","NORAD_CAT_ID":67470,"ELEMENT_SET_NO":999,"REV_AT_EPOCH":953,"BSTAR":0.001028495,"MEAN_MOTION_DOT":0.00028167,"MEAN_MOTION_DDOT":0}]
